{
  "norad_id": 43786,
  "name": "ITASAT",
  "history": [
    {
      "epoch": "2026-03-28T16:41:05.394048Z",
      "apogee_km": 519.6906476532449,
      "perigee_km": 504.24812781067794,
      "latitude_deg": -1.649393304860689e-05,
      "longitude_deg": 64.45356939904399,
      "height_km": 514.7018187052126,
      "semi_major_axis_km": 6890.106387731961,
      "eccentricity": 0.00112063,
      "inclination_deg": 97.4132,
      "raan_deg": 140.838,
      "arg_perigee_deg": 272.6933,
      "mean_anomaly_deg": 87.3018,
      "mean_motion_rev_day": 15.17972383
    },
    {
      "epoch": "2026-03-29T02:10:37.914240Z",
      "apogee_km": 519.6717455060161,
      "perigee_km": 504.2214220777214,
      "latitude_deg": 5.417274142038594e-05,
      "longitude_deg": -77.93437826643293,
      "height_km": 514.8647237036924,
      "semi_major_axis_km": 6890.0835837918685,
      "eccentricity": 0.0011212,
      "inclination_deg": 97.4131,
      "raan_deg": 141.2254,
      "arg_perigee_deg": 271.3141,
      "mean_anomaly_deg": 88.6809,
      "mean_motion_rev_day": 15.17979919
    },
    {
      "epoch": "2026-03-30T01:54:28.306656Z",
      "apogee_km": 519.5923471971755,
      "perigee_km": 504.1600955839049,
      "latitude_deg": 5.611981142190047e-08,
      "longitude_deg": -73.90032287333216,
      "height_km": 515.321074250037,
      "semi_major_axis_km": 6890.01322139054,
      "eccentricity": 0.0011199,
      "inclination_deg": 97.4129,
      "raan_deg": 142.194,
      "arg_perigee_deg": 267.4047,
      "mean_anomaly_deg": 92.5905,
      "mean_motion_rev_day": 15.18003172
    },
    {
      "epoch": "2026-03-30T01:54:28.307520Z",
      "apogee_km": 519.5923471971755,
      "perigee_km": 504.1600955839049,
      "latitude_deg": 5.6119812554886514e-08,
      "longitude_deg": -73.90032648318672,
      "height_km": 515.321074250039,
      "semi_major_axis_km": 6890.01322139054,
      "eccentricity": 0.0011199,
      "inclination_deg": 97.4129,
      "raan_deg": 142.194,
      "arg_perigee_deg": 267.4047,
      "mean_anomaly_deg": 92.5905,
      "mean_motion_rev_day": 15.18003172
    },
    {
      "epoch": "2026-03-30T14:33:50.711616Z",
      "apogee_km": 519.5305455032849,
      "perigee_km": 504.1574820657079,
      "latitude_deg": -1.9466358101691325e-05,
      "longitude_deg": 96.25325362817674,
      "height_km": 515.5878319083639,
      "semi_major_axis_km": 6889.981013784496,
      "eccentricity": 0.00111561,
      "inclination_deg": 97.4128,
      "raan_deg": 142.7107,
      "arg_perigee_deg": 265.162,
      "mean_anomaly_deg": 94.834,
      "mean_motion_rev_day": 15.18013816
    },
    {
      "epoch": "2026-03-30T20:53:31.790976Z",
      "apogee_km": 519.516840711186,
      "perigee_km": 504.1394031541495,
      "latitude_deg": -2.6703552132981263e-06,
      "longitude_deg": 1.3305028472631464,
      "height_km": 515.71170310448,
      "semi_major_axis_km": 6889.965121932667,
      "eccentricity": 0.00111593,
      "inclination_deg": 97.4127,
      "raan_deg": 142.969,
      "arg_perigee_deg": 264.1176,
      "mean_anomaly_deg": 95.8786,
      "mean_motion_rev_day": 15.18019068
    }
  ]
}